[{"OBJECT_NAME":"LIME","OBJECT_ID":"2025-009AR","EPOCH":"2026-03-09T17:44:15.459648","MEAN_MOTION":15.28703313,"ECCENTRICITY":0.00016347,"INCLINATION":97.3985,"RA_OF_ASC_NODE":151.4831,"ARG_OF_PERICENTER":35.9029,"MEAN_ANOMALY":324.232,"EPHEMERIS_TYPE":0,"CLASSIFICATION_TYPE":"U","NORAD_CAT_ID":62648,"ELEMENT_SET_NO":999,"REV_AT_EPOCH":6376,"BSTAR":0.00047722827,"MEAN_MOTION_DOT":0.00013254,"MEAN_MOTION_DDOT":0},{"OBJECT_NAME":"STARLINK-35872","OBJECT_ID":"2025-268Z","EPOCH":"2026-03-09T02:47:27.140640","MEAN_MOTION":15.27576929,"ECCENTRICITY":0.00020393,"INCLINATION":43.0025,"RA_OF_ASC_NODE":350.1632,"ARG_OF_PERICENTER":253.0464,"MEAN_ANOMALY":107.0164,"EPHEMERIS_TYPE":0,"CLASSIFICATION_TYPE":"U","NORAD_CAT_ID":66580,"ELEMENT_SET_NO":999,"REV_AT_EPOCH":1787,"BSTAR":0.001933689,"MEAN_MOTION_DOT":0.0005333,"MEAN_MOTION_DDOT":0}]
